AII-BRAVO               
1 48270U 21034C   26068.69561509  .00006142  00000+0  46527-3 0  9993
2 48270  97.5758 125.8704 0005372 233.3237 126.7495 15.02621336264679
STARLINK-4571           
1 53688U 22105AS  26068.65238105 -.00000770  00000+0 -55410-4 0  9996
2 53688  97.6023 310.1668 0001573 117.2615 242.8770 15.01261297193235
